{"type": "FeatureCollection", "features": [ {"type": "Feature", "properties": {"norad_id": 43566, "name": "GSAT0219 (GALILEO 23)", "group": "gnss", "lat": 54.99130679276743, "lon": 100.06897029839013, "alt_km": 23232.777392181382, "timestamp": "2025-12-07T20:38:14.309757+00:00", "meta": {"OBJECT_NAME": "GSAT0219 (GALILEO 23)", "OBJECT_ID": "2018-060C", "EPOCH": "2025-12-05T22:22:25.031424", "MEAN_MOTION": 1.70475627, "ECCENTRICITY": 0.00057672, "INCLINATION": 57.232, "RA_OF_ASC_NODE": 347.0061, "ARG_OF_PERICENTER": 285.4394, "MEAN_ANOMALY": 74.5216, "EPHEMERIS_TYPE": 0, "CLASSIFICATION_TYPE": "U", "NORAD_CAT_ID": 43566, "ELEMENT_SET_NO": 999, "REV_AT_EPOCH": 4589, "BSTAR": 0, "MEAN_MOTION_DOT": -7.8e-07, "MEAN_MOTION_DDOT": 0}, "tle": {"line1": "1 43566U 18060C   25339.93223416 -.00000078  00000+0  00000+0 0  9995", "line2": "2 43566  57.2320 347.0061 0005767 285.4394  74.5216  1.70475627 45896"}}, "geometry": {"type": "Point", "coordinates": [100.06897029839013, 54.99130679276743]}}, {"type": "Feature", "properties": {"norad_id": 43567, "name": "GSAT0220 (GALILEO 24)", "group": "gnss", "lat": -26.89588130671706, "lon": -32.119511453029844, "alt_km": 23212.804572595443, "timestamp": "2025-12-07T20:38:14.309771+00:00", "meta": {"OBJECT_NAME": "GSAT0220 (GALILEO 24)", "OBJECT_ID": "2018-060D", "EPOCH": "2025-12-04T23:31:11.369280", "MEAN_MOTION": 1.70475333, "ECCENTRICITY": 0.00061638, "INCLINATION": 57.2318, "RA_OF_ASC_NODE": 347.0321, "ARG_OF_PERICENTER": 281.7737, "MEAN_ANOMALY": 78.1861, "EPHEMERIS_TYPE": 0, "CLASSIFICATION_TYPE": "U", "NORAD_CAT_ID": 43567, "ELEMENT_SET_NO": 999, "REV_AT_EPOCH": 4586, "BSTAR": 0, "MEAN_MOTION_DOT": -7.4e-07, "MEAN_MOTION_DDOT": 0}, "tle": {"line1": "1 43567U 18060D   25338.97999270 -.00000074  00000+0  00000+0 0  9993", "line2": "2 43567  57.2318 347.0321 0006163 281.7737  78.1861  1.70475333 45861"}}, "geometry": {"type": "Point", "coordinates": [-32.119511453029844, -26.89588130671706]}}, {"type": "Feature", "properties": {"norad_id": 43581, "name": "BEIDOU-3 M5 (C23)", "group": "gnss", "lat": -45.1046185855176, "lon": 142.13874351436328, "alt_km": 21530.00204257596, "timestamp": "2025-12-07T20:38:14.309783+00:00", "meta": {"OBJECT_NAME": "BEIDOU-3 M5 (C23)", "OBJECT_ID": "2018-062A", "EPOCH": "2025-12-06T21:02:53.653632", "MEAN_MOTION": 1.86228635, "ECCENTRICITY": 0.00021198, "INCLINATION": 54.0891, "RA_OF_ASC_NODE": 188.8428, "ARG_OF_PERICENTER": 353.2853, "MEAN_ANOMALY": 6.7866, "EPHEMERIS_TYPE": 0, "CLASSIFICATION_TYPE": "U", "NORAD_CAT_ID": 43581, "ELEMENT_SET_NO": 999, "REV_AT_EPOCH": 5005, "BSTAR": 0, "MEAN_MOTION_DOT": 6.6e-07, "MEAN_MOTION_DDOT": 0}, "tle": {"line1": "1 43581U 18062A   25340.87700988  .00000066  00000+0  00000+0 0  9999", "line2": "2 43581  54.0891 188.8428 0002119 353.2853   6.7866  1.86228635 50055"}}, "geometry": {"type": "Point", "coordinates": [142.13874351436328, -45.1046185855176]}}, {"type": "Feature", "properties": {"norad_id": 43582, "name": "BEIDOU-3 M6 (C24)", "group": "gnss", "lat": 24.495049260209107, "lon": -151.9087830238353, "alt_km": 21504.312167012606, "timestamp": "2025-12-07T20:38:14.309794+00:00", "meta": {"OBJECT_NAME": "BEIDOU-3 M6 (C24)", "OBJECT_ID": "2018-062B", "EPOCH": "2025-12-06T17:45:46.056960", "MEAN_MOTION": 1.86229666, "ECCENTRICITY": 0.00077578, "INCLINATION": 54.0886, "RA_OF_ASC_NODE": 188.8365, "ARG_OF_PERICENTER": 46.2295, "MEAN_ANOMALY": 313.9106, "EPHEMERIS_TYPE": 0, "CLASSIFICATION_TYPE": "U", "NORAD_CAT_ID": 43582, "ELEMENT_SET_NO": 999, "REV_AT_EPOCH": 5005, "BSTAR": 0, "MEAN_MOTION_DOT": 6.8e-07, "MEAN_MOTION_DDOT": 0}, "tle": {"line1": "1 43582U 18062B   25340.74011640  .00000068  00000+0  00000+0 0  9998", "line2": "2 43582  54.0886 188.8365 0007757  46.2295 313.9106  1.86229666 50057"}}, "geometry": {"type": "Point", "coordinates": [-151.9087830238353, 24.495049260209107]}}, {"type": "Feature", "properties": {"norad_id": 43602, "name": "BEIDOU-3 M12 (C26)", "group": "gnss", "lat": 50.67859497865372, "lon": -110.59044291240535, "alt_km": 21500.680992094545, "timestamp": "2025-12-07T20:38:14.309807+00:00", "meta": {"OBJECT_NAME": "BEIDOU-3 M12 (C26)", "OBJECT_ID": "2018-067A", "EPOCH": "2025-12-05T01:36:30.437280", "MEAN_MOTION": 1.86227634, "ECCENTRICITY": 0.0009145, "INCLINATION": 54.1831, "RA_OF_ASC_NODE": 187.6237, "ARG_OF_PERICENTER": 40.6372, "MEAN_ANOMALY": 319.5174, "EPHEMERIS_TYPE": 0, "CLASSIFICATION_TYPE": "U", "NORAD_CAT_ID": 43602, "ELEMENT_SET_NO": 999, "REV_AT_EPOCH": 4950, "BSTAR": 0, "MEAN_MOTION_DOT": 9.5e-07, "MEAN_MOTION_DDOT": 0}, "tle": {"line1": "1 43602U 18067A   25339.06701895  .00000095  00000+0  00000+0 0  9997", "line2": "2 43602  54.1831 187.6237 0009145  40.6372 319.5174  1.86227634 49501"}}, "geometry": {"type": "Point", "coordinates": [-110.59044291240535, 50.67859497865372]}}, {"type": "Feature", "properties": {"norad_id": 43603, "name": "BEIDOU-3 M11 (C25)", "group": "gnss", "lat": -14.272541643421322, "lon": 176.90993842969365, "alt_km": 21521.371241152476, "timestamp": "2025-12-07T20:38:14.309818+00:00", "meta": {"OBJECT_NAME": "BEIDOU-3 M11 (C25)", "OBJECT_ID": "2018-067B", "EPOCH": "2025-12-06T19:29:48.716160", "MEAN_MOTION": 1.86227158, "ECCENTRICITY": 0.00055848, "INCLINATION": 54.1804, "RA_OF_ASC_NODE": 187.5285, "ARG_OF_PERICENTER": 36.507, "MEAN_ANOMALY": 323.6042, "EPHEMERIS_TYPE": 0, "CLASSIFICATION_TYPE": "U", "NORAD_CAT_ID": 43603, "ELEMENT_SET_NO": 999, "REV_AT_EPOCH": 4956, "BSTAR": 0, "MEAN_MOTION_DOT": 6.7e-07, "MEAN_MOTION_DDOT": 0}, "tle": {"line1": "1 43603U 18067B   25340.81236940  .00000067  00000+0  00000+0 0  9996", "line2": "2 43603  54.1804 187.5285 0005584  36.5070 323.6042  1.86227158 49563"}}, "geometry": {"type": "Point", "coordinates": [176.90993842969365, -14.272541643421322]}}, {"type": "Feature", "properties": {"norad_id": 43622, "name": "BEIDOU-3 M13 (C32)", "group": "gnss", "lat": 9.525566081435501, "lon": 75.37399966344161, "alt_km": 21522.45155990983, "timestamp": "2025-12-07T20:38:14.309832+00:00", "meta": {"OBJECT_NAME": "BEIDOU-3 M13 (C32)", "OBJECT_ID": "2018-072A", "EPOCH": "2025-12-03T13:07:53.541408", "MEAN_MOTION": 1.86230692, "ECCENTRICITY": 0.00056735, "INCLINATION": 56.4512, "RA_OF_ASC_NODE": 69.1249, "ARG_OF_PERICENTER": 298.6305, "MEAN_ANOMALY": 61.3164, "EPHEMERIS_TYPE": 0, "CLASSIFICATION_TYPE": "U", "NORAD_CAT_ID": 43622, "ELEMENT_SET_NO": 999, "REV_AT_EPOCH": 4901, "BSTAR": 0, "MEAN_MOTION_DOT": -5e-07, "MEAN_MOTION_DDOT": 0}, "tle": {"line1": "1 43622U 18072A   25337.54714747 -.00000050  00000+0  00000+0 0  9998", "line2": "2 43622  56.4512  69.1249 0005673 298.6305  61.3164  1.86230692 49019"}}, "geometry": {"type": "Point", "coordinates": [75.37399966344161, 9.525566081435501]}}, {"type": "Feature", "properties": {"norad_id": 43623, "name": "BEIDOU-3 M14 (C33)", "group": "gnss", "lat": 54.72693195878389, "lon": 179.51826157863644, "alt_km": 21526.725968567476, "timestamp": "2025-12-07T20:38:14.309843+00:00", "meta": {"OBJECT_NAME": "BEIDOU-3 M14 (C33)", "OBJECT_ID": "2018-072B", "EPOCH": "2025-12-02T08:07:43.843296", "MEAN_MOTION": 1.86230716, "ECCENTRICITY": 0.00030503, "INCLINATION": 56.4518, "RA_OF_ASC_NODE": 69.1588, "ARG_OF_PERICENTER": 335.8375, "MEAN_ANOMALY": 24.1509, "EPHEMERIS_TYPE": 0, "CLASSIFICATION_TYPE": "U", "NORAD_CAT_ID": 43623, "ELEMENT_SET_NO": 999, "REV_AT_EPOCH": 4898, "BSTAR": 0, "MEAN_MOTION_DOT": -4.6e-07, "MEAN_MOTION_DDOT": 0}, "tle": {"line1": "1 43623U 18072B   25336.33870189 -.00000046  00000+0  00000+0 0  9993", "line2": "2 43623  56.4518  69.1588 0003050 335.8375  24.1509  1.86230716 48982"}}, "geometry": {"type": "Point", "coordinates": [179.51826157863644, 54.72693195878389]}}, {"type": "Feature", "properties": {"norad_id": 43647, "name": "BEIDOU-3 M16 (C35)", "group": "gnss", "lat": -3.42256650900883, "lon": -55.79578784962319, "alt_km": 21510.617288713063, "timestamp": "2025-12-07T20:38:14.309854+00:00", "meta": {"OBJECT_NAME": "BEIDOU-3 M16 (C35)", "OBJECT_ID": "2018-078A", "EPOCH": "2025-12-04T15:28:02.326368", "MEAN_MOTION": 1.8623209, "ECCENTRICITY": 0.00070171, "INCLINATION": 54.2696, "RA_OF_ASC_NODE": 306.8042, "ARG_OF_PERICENTER": 18.5633, "MEAN_ANOMALY": 341.4446, "EPHEMERIS_TYPE": 0, "CLASSIFICATION_TYPE": "U", "NORAD_CAT_ID": 43647, "ELEMENT_SET_NO": 999, "REV_AT_EPOCH": 4853, "BSTAR": 0, "MEAN_MOTION_DOT": -6.9e-07, "MEAN_MOTION_DDOT": 0}, "tle": {"line1": "1 43647U 18078A   25338.64447137 -.00000069  00000+0  00000+0 0  9999", "line2": "2 43647  54.2696 306.8042 0007017  18.5633 341.4446  1.86232090 48539"}}, "geometry": {"type": "Point", "coordinates": [-55.79578784962319, -3.42256650900883]}}, {"type": "Feature", "properties": {"norad_id": 43648, "name": "BEIDOU-3 M15 (C34)", "group": "gnss", "lat": -54.25566523782499, "lon": -144.7777323535736, "alt_km": 21537.03304664202, "timestamp": "2025-12-07T20:38:14.309868+00:00", "meta": {"OBJECT_NAME": "BEIDOU-3 M15 (C34)", "OBJECT_ID": "2018-078B", "EPOCH": "2025-12-05T07:27:18.667008", "MEAN_MOTION": 1.86231965, "ECCENTRICITY": 0.00036856, "INCLINATION": 54.2646, "RA_OF_ASC_NODE": 306.7819, "ARG_OF_PERICENTER": 17.7509, "MEAN_ANOMALY": 342.2442, "EPHEMERIS_TYPE": 0, "CLASSIFICATION_TYPE": "U", "NORAD_CAT_ID": 43648, "ELEMENT_SET_NO": 999, "REV_AT_EPOCH": 4856, "BSTAR": 0, "MEAN_MOTION_DOT": -6.9e-07, "MEAN_MOTION_DDOT": 0}, "tle": {"line1": "1 43648U 18078B   25339.31063272 -.00000069  00000+0  00000+0 0  9999", "line2": "2 43648  54.2646 306.7819 0003685  17.7509 342.2442  1.86231965 48564"}}, "geometry": {"type": "Point", "coordinates": [-144.7777323535736, -54.25566523782499]}}]}